{"type": "FeatureCollection", "features": [ {"type": "Feature", "properties": {"norad_id": 34979, "name": "COSMOS 2251 DEB", "group": "cosmos-2251-debris", "lat": -37.88159491996099, "lon": 79.13538029327714, "alt_km": 644.1131981476165, "timestamp": "2025-12-23T09:49:07.478663+00:00", "meta": {"OBJECT_NAME": "COSMOS 2251 DEB", "OBJECT_ID": "1993-036AFJ", "EPOCH": "2025-12-22T16:35:49.545024", "MEAN_MOTION": 14.7951388, "ECCENTRICITY": 0.00491991, "INCLINATION": 74.0391, "RA_OF_ASC_NODE": 247.682, "ARG_OF_PERICENTER": 323.5515, "MEAN_ANOMALY": 36.2314, "EPHEMERIS_TYPE": 0, "CLASSIFICATION_TYPE": "U", "NORAD_CAT_ID": 34979, "ELEMENT_SET_NO": 999, "REV_AT_EPOCH": 88367, "BSTAR": 0.0010881328, "MEAN_MOTION_DOT": 8.281e-05, "MEAN_MOTION_DDOT": 0}, "tle": {"line1": "1 34979U 93036AFJ 25356.69154566  .00008281  00000+0  10881-2 0  9994", "line2": "2 34979  74.0391 247.6820 0049199 323.5515  36.2314 14.79513880883670"}}, "geometry": {"type": "Point", "coordinates": [79.13538029327714, -37.88159491996099]}}, {"type": "Feature", "properties": {"norad_id": 34990, "name": "COSMOS 2251 DEB", "group": "cosmos-2251-debris", "lat": -17.096411317802424, "lon": -133.4854507186668, "alt_km": 747.5446796923952, "timestamp": "2025-12-23T09:49:07.478673+00:00", "meta": {"OBJECT_NAME": "COSMOS 2251 DEB", "OBJECT_ID": "1993-036AFN", "EPOCH": "2025-12-15T10:28:28.781472", "MEAN_MOTION": 14.42382837, "ECCENTRICITY": 0.00165597, "INCLINATION": 74.0457, "RA_OF_ASC_NODE": 246.3361, "ARG_OF_PERICENTER": 308.9911, "MEAN_ANOMALY": 50.977, "EPHEMERIS_TYPE": 0, "CLASSIFICATION_TYPE": "U", "NORAD_CAT_ID": 34990, "ELEMENT_SET_NO": 999, "REV_AT_EPOCH": 87385, "BSTAR": 0.00031884459, "MEAN_MOTION_DOT": 1.029e-05, "MEAN_MOTION_DDOT": 0}, "tle": {"line1": "1 34990U 93036AFN 25349.43644423  .00001029  00000+0  31884-3 0  9997", "line2": "2 34990  74.0457 246.3361 0016559 308.9911  50.9770 14.42382837873857"}}, "geometry": {"type": "Point", "coordinates": [-133.4854507186668, -17.096411317802424]}}, {"type": "Feature", "properties": {"norad_id": 34997, "name": "COSMOS 2251 DEB", "group": "cosmos-2251-debris", "lat": -73.7316500163853, "lon": -151.18790098103742, "alt_km": 678.1219673366768, "timestamp": "2025-12-23T09:49:07.478683+00:00", "meta": {"OBJECT_NAME": "COSMOS 2251 DEB", "OBJECT_ID": "1993-036AFV", "EPOCH": "2025-12-22T02:39:53.440416", "MEAN_MOTION": 14.45657457, "ECCENTRICITY": 0.0097328, "INCLINATION": 73.8808, "RA_OF_ASC_NODE": 293.5509, "ARG_OF_PERICENTER": 267.0492, "MEAN_ANOMALY": 91.9523, "EPHEMERIS_TYPE": 0, "CLASSIFICATION_TYPE": "U", "NORAD_CAT_ID": 34997, "ELEMENT_SET_NO": 999, "REV_AT_EPOCH": 70882, "BSTAR": 0.0015391452, "MEAN_MOTION_DOT": 5.746e-05, "MEAN_MOTION_DDOT": 0}, "tle": {"line1": "1 34997U 93036AFV 25356.11103519  .00005746  00000+0  15391-2 0  9997", "line2": "2 34997  73.8808 293.5509 0097328 267.0492  91.9523 14.45657457708822"}}, "geometry": {"type": "Point", "coordinates": [-151.18790098103742, -73.7316500163853]}}, {"type": "Feature", "properties": {"norad_id": 34998, "name": "COSMOS 2251 DEB", "group": "cosmos-2251-debris", "lat": -62.79190326916127, "lon": 106.04194073526786, "alt_km": 719.6144459615789, "timestamp": "2025-12-23T09:49:07.478693+00:00", "meta": {"OBJECT_NAME": "COSMOS 2251 DEB", "OBJECT_ID": "1993-036AFW", "EPOCH": "2025-12-22T03:28:26.266080", "MEAN_MOTION": 14.49318679, "ECCENTRICITY": 0.00214468, "INCLINATION": 74.0103, "RA_OF_ASC_NODE": 142.3159, "ARG_OF_PERICENTER": 286.5677, "MEAN_ANOMALY": 251.5263, "EPHEMERIS_TYPE": 0, "CLASSIFICATION_TYPE": "U", "NORAD_CAT_ID": 34998, "ELEMENT_SET_NO": 999, "REV_AT_EPOCH": 87556, "BSTAR": 0.00058847392, "MEAN_MOTION_DOT": 2.226e-05, "MEAN_MOTION_DDOT": 0}, "tle": {"line1": "1 34998U 93036AFW 25356.14474845  .00002226  00000+0  58847-3 0  9998", "line2": "2 34998  74.0103 142.3159 0021446 286.5677 251.5263 14.49318679875560"}}, "geometry": {"type": "Point", "coordinates": [106.04194073526786, -62.79190326916127]}}, {"type": "Feature", "properties": {"norad_id": 35012, "name": "COSMOS 2251 DEB", "group": "cosmos-2251-debris", "lat": 55.37950924601545, "lon": -112.69801301366917, "alt_km": 752.6923096918526, "timestamp": "2025-12-23T09:49:07.478703+00:00", "meta": {"OBJECT_NAME": "COSMOS 2251 DEB", "OBJECT_ID": "1993-036AFZ", "EPOCH": "2025-12-22T16:38:38.272128", "MEAN_MOTION": 14.45560841, "ECCENTRICITY": 0.00814852, "INCLINATION": 74.0208, "RA_OF_ASC_NODE": 93.1592, "ARG_OF_PERICENTER": 231.2389, "MEAN_ANOMALY": 128.147, "EPHEMERIS_TYPE": 0, "CLASSIFICATION_TYPE": "U", "NORAD_CAT_ID": 35012, "ELEMENT_SET_NO": 999, "REV_AT_EPOCH": 87705, "BSTAR": 0.00016031267, "MEAN_MOTION_DOT": 5.6e-06, "MEAN_MOTION_DDOT": 0}, "tle": {"line1": "1 35012U 93036AFZ 25356.69349852  .00000560  00000+0  16031-3 0  9993", "line2": "2 35012  74.0208  93.1592 0081485 231.2389 128.1470 14.45560841877055"}}, "geometry": {"type": "Point", "coordinates": [-112.69801301366917, 55.37950924601545]}}, {"type": "Feature", "properties": {"norad_id": 35014, "name": "COSMOS 2251 DEB", "group": "cosmos-2251-debris", "lat": -64.99021357539993, "lon": -15.321417364583612, "alt_km": 650.8799873759444, "timestamp": "2025-12-23T09:49:07.478713+00:00", "meta": {"OBJECT_NAME": "COSMOS 2251 DEB", "OBJECT_ID": "1993-036AGB", "EPOCH": "2025-12-17T09:17:45.359520", "MEAN_MOTION": 14.75277506, "ECCENTRICITY": 0.00070196, "INCLINATION": 73.9998, "RA_OF_ASC_NODE": 34.4305, "ARG_OF_PERICENTER": 212.3979, "MEAN_ANOMALY": 147.6764, "EPHEMERIS_TYPE": 0, "CLASSIFICATION_TYPE": "U", "NORAD_CAT_ID": 35014, "ELEMENT_SET_NO": 999, "REV_AT_EPOCH": 71405, "BSTAR": 0.0010947042, "MEAN_MOTION_DOT": 7.39e-05, "MEAN_MOTION_DDOT": 0}, "tle": {"line1": "1 35014U 93036AGB 25351.38733055  .00007390  00000+0  10947-2 0  9995", "line2": "2 35014  73.9998  34.4305 0007019 212.3979 147.6764 14.75277506714055"}}, "geometry": {"type": "Point", "coordinates": [-15.321417364583612, -64.99021357539993]}}, {"type": "Feature", "properties": {"norad_id": 35015, "name": "COSMOS 2251 DEB", "group": "cosmos-2251-debris", "lat": -48.40634105640239, "lon": -164.24558547982326, "alt_km": 777.2137795745975, "timestamp": "2025-12-23T09:49:07.478724+00:00", "meta": {"OBJECT_NAME": "COSMOS 2251 DEB", "OBJECT_ID": "1993-036AGC", "EPOCH": "2025-12-21T09:05:04.900416", "MEAN_MOTION": 14.46918455, "ECCENTRICITY": 0.00743638, "INCLINATION": 73.9465, "RA_OF_ASC_NODE": 218.4969, "ARG_OF_PERICENTER": 85.0123, "MEAN_ANOMALY": 91.7115, "EPHEMERIS_TYPE": 0, "CLASSIFICATION_TYPE": "U", "NORAD_CAT_ID": 35015, "ELEMENT_SET_NO": 999, "REV_AT_EPOCH": 65565, "BSTAR": 0.0005445635, "MEAN_MOTION_DOT": 2.019e-05, "MEAN_MOTION_DDOT": 0}, "tle": {"line1": "1 35015U 93036AGC 25355.37852894  .00002019  00000+0  54456-3 0  9999", "line2": "2 35015  73.9465 218.4969 0074363  85.0123  91.7115 14.46918455655659"}}, "geometry": {"type": "Point", "coordinates": [-164.24558547982326, -48.40634105640239]}}, {"type": "Feature", "properties": {"norad_id": 35016, "name": "COSMOS 2251 DEB", "group": "cosmos-2251-debris", "lat": -55.034156394836224, "lon": 119.07755932339995, "alt_km": 727.4249270164164, "timestamp": "2025-12-23T09:49:07.478734+00:00", "meta": {"OBJECT_NAME": "COSMOS 2251 DEB", "OBJECT_ID": "1993-036AGD", "EPOCH": "2025-12-21T01:36:06.995232", "MEAN_MOTION": 14.35074677, "ECCENTRICITY": 0.01140843, "INCLINATION": 73.9302, "RA_OF_ASC_NODE": 279.056, "ARG_OF_PERICENTER": 194.2679, "MEAN_ANOMALY": 186.7266, "EPHEMERIS_TYPE": 0, "CLASSIFICATION_TYPE": "U", "NORAD_CAT_ID": 35016, "ELEMENT_SET_NO": 999, "REV_AT_EPOCH": 86902, "BSTAR": 0.00020302186, "MEAN_MOTION_DOT": 5.95e-06, "MEAN_MOTION_DDOT": 0}, "tle": {"line1": "1 35016U 93036AGD 25355.06674763  .00000595  00000+0  20302-3 0  9993", "line2": "2 35016  73.9302 279.0560 0114084 194.2679 186.7266 14.35074677869021"}}, "geometry": {"type": "Point", "coordinates": [119.07755932339995, -55.034156394836224]}}, {"type": "Feature", "properties": {"norad_id": 35018, "name": "COSMOS 2251 DEB", "group": "cosmos-2251-debris", "lat": -61.48301575203409, "lon": -55.65596247329625, "alt_km": 1110.7058671157283, "timestamp": "2025-12-23T09:49:07.478744+00:00", "meta": {"OBJECT_NAME": "COSMOS 2251 DEB", "OBJECT_ID": "1993-036AGF", "EPOCH": "2025-12-21T14:27:14.171040", "MEAN_MOTION": 13.67131243, "ECCENTRICITY": 0.0348897, "INCLINATION": 73.9753, "RA_OF_ASC_NODE": 95.386, "ARG_OF_PERICENTER": 2.6305, "MEAN_ANOMALY": 357.6538, "EPHEMERIS_TYPE": 0, "CLASSIFICATION_TYPE": "U", "NORAD_CAT_ID": 35018, "ELEMENT_SET_NO": 999, "REV_AT_EPOCH": 83307, "BSTAR": 0.00070084, "MEAN_MOTION_DOT": 8.72e-06, "MEAN_MOTION_DDOT": 0}, "tle": {"line1": "1 35018U 93036AGF 25355.60224735  .00000872  00000+0  70084-3 0  9995", "line2": "2 35018  73.9753  95.3860 0348897   2.6305 357.6538 13.67131243833078"}}, "geometry": {"type": "Point", "coordinates": [-55.65596247329625, -61.48301575203409]}}, {"type": "Feature", "properties": {"norad_id": 35020, "name": "COSMOS 2251 DEB", "group": "cosmos-2251-debris", "lat": -40.159941218577934, "lon": 164.53777084419437, "alt_km": 633.1212237730197, "timestamp": "2025-12-23T09:49:07.478754+00:00", "meta": {"OBJECT_NAME": "COSMOS 2251 DEB", "OBJECT_ID": "1993-036AGH", "EPOCH": "2025-12-21T21:53:57.089184", "MEAN_MOTION": 14.6281821, "ECCENTRICITY": 0.00912921, "INCLINATION": 74.0451, "RA_OF_ASC_NODE": 181.3743, "ARG_OF_PERICENTER": 293.3568, "MEAN_ANOMALY": 65.8014, "EPHEMERIS_TYPE": 0, "CLASSIFICATION_TYPE": "U", "NORAD_CAT_ID": 35020, "ELEMENT_SET_NO": 999, "REV_AT_EPOCH": 88372, "BSTAR": 0.00012286982, "MEAN_MOTION_DOT": 6.31e-06, "MEAN_MOTION_DDOT": 0}, "tle": {"line1": "1 35020U 93036AGH 25355.91246631  .00000631  00000+0  12287-3 0  9995", "line2": "2 35020  74.0451 181.3743 0091292 293.3568  65.8014 14.62818210883724"}}, "geometry": {"type": "Point", "coordinates": [164.53777084419437, -40.159941218577934]}}]}